SL-4 R/B                
1 39679U 14021B   26046.28795126  .00013986  00000+0  31620-3 0  9991
2 39679  51.6065  86.4989 0098895  21.3450 339.1615 15.38423485652821
YAOGAN-29               
1 41038U 15069A   26046.25857316  .00000444  00000+0  61343-4 0  9994
2 41038  98.0174  74.6263 0002862  73.2427 286.9101 14.82969935552553
ASTRO-H (HITOMI)        
1 41337U 16012A   26045.62902584  .00003253  00000+0  19039-3 0  9998
2 41337  30.9987 145.3423 0009841 100.7351 259.4395 15.09834383548746
HXMT (HUIYAN)           
1 42758U 17034A   26046.26401124  .00005923  00000+0  30124-3 0  9990
2 42758  43.0142 141.3212 0030585  92.8970 267.5379 15.17167662479137
CZ-2C R/B               
1 43521U 18054D   26046.25254011  .00544605  13160-3  89436-3 0  9992
2 43521  35.1280  96.6377 0011686  91.0773 269.1308 16.01995043425292
SAOCOM 1A               
1 43641U 18076A   26046.27947054  .00000243  00000+0  37114-4 0  9994
2 43641  97.8873 234.7688 0001379  82.1762 277.9608 14.82141551398041
H-2A R/B                
1 43682U 18084L   26046.13330405  .00017013  00000+0  41896-3 0  9993
2 43682  98.8756 258.7172 0026342 100.8959 259.5249 15.40335044402303
SAOCOM 1B               
1 46265U 20059A   26046.24322462 -.00000144  00000+0 -11591-4 0  9993
2 46265  97.8872 233.8310 0001478  84.7660 275.3722 14.82144468295429
CSS (TIANHE)            
1 48274U 21035A   26046.24710755  .00032152  00000+0  39404-3 0  9990
2 48274  41.4684 344.6145 0004086 100.8613 259.2686 15.59657652274101
COSMOS 2550             
1 48865U 21056A   26045.89030187 -.00000042  00000+0  45523-5 0  9998
2 48865  67.1422 109.8973 0008401 269.4635  90.5557 15.33828936259960
CZ-2C R/B               
1 52794U 22058K   26046.25511267  .00037013  00000+0  57286-3 0  9995
2 52794  50.1883  73.5485 0042143 105.3301 255.2332 15.52620882206642
