CCSDS_OMM_VERS = 2.0
CREATION_DATE  = 
ORIGINATOR     = 

OBJECT_NAME    = SL-4 R/B
OBJECT_ID      = 2014-021B
CENTER_NAME    = EARTH
REF_FRAME      = TEME
TIME_SYSTEM    = UTC
MEAN_ELEMENT_THEORY = SGP/SGP4

EPOCH          = 2026-02-15T06:54:38.988864
MEAN_MOTION    = 15.38423485
ECCENTRICITY   = .00988955
INCLINATION    = 51.6065
RA_OF_ASC_NODE = 86.4989
ARG_OF_PERICENTER = 21.3450
MEAN_ANOMALY   = 339.1615

EPHEMERIS_TYPE = 0
CLASSIFICATION_TYPE = U
NORAD_CAT_ID   = 39679
ELEMENT_SET_NO = 999
REV_AT_EPOCH   = 65282
BSTAR          = .31619868E-3
MEAN_MOTION_DOT = .13986E-3
MEAN_MOTION_DDOT = 0

CCSDS_OMM_VERS = 2.0
CREATION_DATE  = 
ORIGINATOR     = 

OBJECT_NAME    = YAOGAN-29
OBJECT_ID      = 2015-069A
CENTER_NAME    = EARTH
REF_FRAME      = TEME
TIME_SYSTEM    = UTC
MEAN_ELEMENT_THEORY = SGP/SGP4

EPOCH          = 2026-02-15T06:12:20.721024
MEAN_MOTION    = 14.82969935
ECCENTRICITY   = .00028621
INCLINATION    = 98.0174
RA_OF_ASC_NODE = 74.6263
ARG_OF_PERICENTER = 73.2427
MEAN_ANOMALY   = 286.9101

EPHEMERIS_TYPE = 0
CLASSIFICATION_TYPE = U
NORAD_CAT_ID   = 41038
ELEMENT_SET_NO = 999
REV_AT_EPOCH   = 55255
BSTAR          = .61342547E-4
MEAN_MOTION_DOT = .444E-5
MEAN_MOTION_DDOT = 0

CCSDS_OMM_VERS = 2.0
CREATION_DATE  = 
ORIGINATOR     = 

OBJECT_NAME    = ASTRO-H (HITOMI)
OBJECT_ID      = 2016-012A
CENTER_NAME    = EARTH
REF_FRAME      = TEME
TIME_SYSTEM    = UTC
MEAN_ELEMENT_THEORY = SGP/SGP4

EPOCH          = 2026-02-14T15:05:47.832576
MEAN_MOTION    = 15.09834383
ECCENTRICITY   = .00098419
INCLINATION    = 30.9987
RA_OF_ASC_NODE = 145.3423
ARG_OF_PERICENTER = 100.7351
MEAN_ANOMALY   = 259.4395

EPHEMERIS_TYPE = 0
CLASSIFICATION_TYPE = U
NORAD_CAT_ID   = 41337
ELEMENT_SET_NO = 999
REV_AT_EPOCH   = 54874
BSTAR          = .19039042E-3
MEAN_MOTION_DOT = .3253E-4
MEAN_MOTION_DDOT = 0

CCSDS_OMM_VERS = 2.0
CREATION_DATE  = 
ORIGINATOR     = 

OBJECT_NAME    = HXMT (HUIYAN)
OBJECT_ID      = 2017-034A
CENTER_NAME    = EARTH
REF_FRAME      = TEME
TIME_SYSTEM    = UTC
MEAN_ELEMENT_THEORY = SGP/SGP4

EPOCH          = 2026-02-15T06:20:10.571136
MEAN_MOTION    = 15.17167662
ECCENTRICITY   = .00305851
INCLINATION    = 43.0142
RA_OF_ASC_NODE = 141.3212
ARG_OF_PERICENTER = 92.8970
MEAN_ANOMALY   = 267.5379

EPHEMERIS_TYPE = 0
CLASSIFICATION_TYPE = U
NORAD_CAT_ID   = 42758
ELEMENT_SET_NO = 999
REV_AT_EPOCH   = 47913
BSTAR          = .30123836E-3
MEAN_MOTION_DOT = .5923E-4
MEAN_MOTION_DDOT = 0

CCSDS_OMM_VERS = 2.0
CREATION_DATE  = 
ORIGINATOR     = 

OBJECT_NAME    = CZ-2C R/B
OBJECT_ID      = 2018-054D
CENTER_NAME    = EARTH
REF_FRAME      = TEME
TIME_SYSTEM    = UTC
MEAN_ELEMENT_THEORY = SGP/SGP4

EPOCH          = 2026-02-15T06:03:39.465504
MEAN_MOTION    = 16.01995043
ECCENTRICITY   = .0011686
INCLINATION    = 35.1280
RA_OF_ASC_NODE = 96.6377
ARG_OF_PERICENTER = 91.0773
MEAN_ANOMALY   = 269.1308

EPHEMERIS_TYPE = 0
CLASSIFICATION_TYPE = U
NORAD_CAT_ID   = 43521
ELEMENT_SET_NO = 999
REV_AT_EPOCH   = 42529
BSTAR          = .89436446E-3
MEAN_MOTION_DOT = .544605E-2
MEAN_MOTION_DDOT = .13160318E-3

CCSDS_OMM_VERS = 2.0
CREATION_DATE  = 
ORIGINATOR     = 

OBJECT_NAME    = SAOCOM 1A
OBJECT_ID      = 2018-076A
CENTER_NAME    = EARTH
REF_FRAME      = TEME
TIME_SYSTEM    = UTC
MEAN_ELEMENT_THEORY = SGP/SGP4

EPOCH          = 2026-02-15T06:42:26.254656
MEAN_MOTION    = 14.82141551
ECCENTRICITY   = .00013797
INCLINATION    = 97.8873
RA_OF_ASC_NODE = 234.7688
ARG_OF_PERICENTER = 82.1762
MEAN_ANOMALY   = 277.9608

EPHEMERIS_TYPE = 0
CLASSIFICATION_TYPE = U
NORAD_CAT_ID   = 43641
ELEMENT_SET_NO = 999
REV_AT_EPOCH   = 39804
BSTAR          = .37114257E-4
MEAN_MOTION_DOT = .243E-5
MEAN_MOTION_DDOT = 0

CCSDS_OMM_VERS = 2.0
CREATION_DATE  = 
ORIGINATOR     = 

OBJECT_NAME    = H-2A R/B
OBJECT_ID      = 2018-084L
CENTER_NAME    = EARTH
REF_FRAME      = TEME
TIME_SYSTEM    = UTC
MEAN_ELEMENT_THEORY = SGP/SGP4

EPOCH          = 2026-02-15T03:11:57.469920
MEAN_MOTION    = 15.40335044
ECCENTRICITY   = .00263427
INCLINATION    = 98.8756
RA_OF_ASC_NODE = 258.7172
ARG_OF_PERICENTER = 100.8959
MEAN_ANOMALY   = 259.5249

EPHEMERIS_TYPE = 0
CLASSIFICATION_TYPE = U
NORAD_CAT_ID   = 43682
ELEMENT_SET_NO = 999
REV_AT_EPOCH   = 40230
BSTAR          = .41896132E-3
MEAN_MOTION_DOT = .17013E-3
MEAN_MOTION_DDOT = 0

CCSDS_OMM_VERS = 2.0
CREATION_DATE  = 
ORIGINATOR     = 

OBJECT_NAME    = SAOCOM 1B
OBJECT_ID      = 2020-059A
CENTER_NAME    = EARTH
REF_FRAME      = TEME
TIME_SYSTEM    = UTC
MEAN_ELEMENT_THEORY = SGP/SGP4

EPOCH          = 2026-02-15T05:50:14.607168
MEAN_MOTION    = 14.82144468
ECCENTRICITY   = .00014782
INCLINATION    = 97.8872
RA_OF_ASC_NODE = 233.8310
ARG_OF_PERICENTER = 84.7660
MEAN_ANOMALY   = 275.3722

EPHEMERIS_TYPE = 0
CLASSIFICATION_TYPE = U
NORAD_CAT_ID   = 46265
ELEMENT_SET_NO = 999
REV_AT_EPOCH   = 29542
BSTAR          = -.11591442E-4
MEAN_MOTION_DOT = -.144E-5
MEAN_MOTION_DDOT = 0

CCSDS_OMM_VERS = 2.0
CREATION_DATE  = 
ORIGINATOR     = 

OBJECT_NAME    = CSS (TIANHE)
OBJECT_ID      = 2021-035A
CENTER_NAME    = EARTH
REF_FRAME      = TEME
TIME_SYSTEM    = UTC
MEAN_ELEMENT_THEORY = SGP/SGP4

EPOCH          = 2026-02-15T05:55:50.092320
MEAN_MOTION    = 15.59657652
ECCENTRICITY   = .00040861
INCLINATION    = 41.4684
RA_OF_ASC_NODE = 344.6145
ARG_OF_PERICENTER = 100.8613
MEAN_ANOMALY   = 259.2686

EPHEMERIS_TYPE = 0
CLASSIFICATION_TYPE = U
NORAD_CAT_ID   = 48274
ELEMENT_SET_NO = 999
REV_AT_EPOCH   = 27410
BSTAR          = .39403586E-3
MEAN_MOTION_DOT = .32152E-3
MEAN_MOTION_DDOT = 0

CCSDS_OMM_VERS = 2.0
CREATION_DATE  = 
ORIGINATOR     = 

OBJECT_NAME    = COSMOS 2550
OBJECT_ID      = 2021-056A
CENTER_NAME    = EARTH
REF_FRAME      = TEME
TIME_SYSTEM    = UTC
MEAN_ELEMENT_THEORY = SGP/SGP4

EPOCH          = 2026-02-14T21:22:02.081568
MEAN_MOTION    = 15.33828936
ECCENTRICITY   = .00084012
INCLINATION    = 67.1422
RA_OF_ASC_NODE = 109.8973
ARG_OF_PERICENTER = 269.4635
MEAN_ANOMALY   = 90.5557

EPHEMERIS_TYPE = 0
CLASSIFICATION_TYPE = U
NORAD_CAT_ID   = 48865
ELEMENT_SET_NO = 999
REV_AT_EPOCH   = 25996
BSTAR          = .4552349E-5
MEAN_MOTION_DOT = -.42E-6
MEAN_MOTION_DDOT = 0

CCSDS_OMM_VERS = 2.0
CREATION_DATE  = 
ORIGINATOR     = 

OBJECT_NAME    = CZ-2C R/B
OBJECT_ID      = 2022-058K
CENTER_NAME    = EARTH
REF_FRAME      = TEME
TIME_SYSTEM    = UTC
MEAN_ELEMENT_THEORY = SGP/SGP4

EPOCH          = 2026-02-15T06:07:21.734688
MEAN_MOTION    = 15.52620882
ECCENTRICITY   = .00421438
INCLINATION    = 50.1883
RA_OF_ASC_NODE = 73.5485
ARG_OF_PERICENTER = 105.3301
MEAN_ANOMALY   = 255.2332

EPHEMERIS_TYPE = 0
CLASSIFICATION_TYPE = U
NORAD_CAT_ID   = 52794
ELEMENT_SET_NO = 999
REV_AT_EPOCH   = 20664
BSTAR          = .57285599E-3
MEAN_MOTION_DOT = .37013E-3
MEAN_MOTION_DDOT = 0

